{"type": "FeatureCollection", "features": [ {"type": "Feature", "properties": {"norad_id": 33630, "name": "FENGYUN 1C DEB", "group": "fengyun-1c-debris", "lat": -49.67469091718783, "lon": 118.00990574708808, "alt_km": 813.1159240204788, "timestamp": "2025-12-27T23:26:37.649393+00:00", "meta": {"OBJECT_NAME": "FENGYUN 1C DEB", "OBJECT_ID": "1999-025DDP", "EPOCH": "2025-12-25T00:32:20.779008", "MEAN_MOTION": 14.17738798, "ECCENTRICITY": 0.01347576, "INCLINATION": 98.616, "RA_OF_ASC_NODE": 104.8539, "ARG_OF_PERICENTER": 32.9099, "MEAN_ANOMALY": 328.0377, "EPHEMERIS_TYPE": 0, "CLASSIFICATION_TYPE": "U", "NORAD_CAT_ID": 33630, "ELEMENT_SET_NO": 999, "REV_AT_EPOCH": 64585, "BSTAR": 0.000328385, "MEAN_MOTION_DOT": 6.9e-06, "MEAN_MOTION_DDOT": 0}, "tle": {"line1": "1 33630U 99025DDP 25359.02246272  .00000690  00000+0  32839-3 0  9991", "line2": "2 33630  98.6160 104.8539 0134757  32.9099 328.0377 14.17738798645859"}}, "geometry": {"type": "Point", "coordinates": [118.00990574708808, -49.67469091718783]}}, {"type": "Feature", "properties": {"norad_id": 33633, "name": "FENGYUN 1C DEB", "group": "fengyun-1c-debris", "lat": 79.02331249771788, "lon": 41.26299002187343, "alt_km": 765.1680812475752, "timestamp": "2025-12-27T23:26:37.649405+00:00", "meta": {"OBJECT_NAME": "FENGYUN 1C DEB", "OBJECT_ID": "1999-025DDS", "EPOCH": "2025-12-20T05:05:42.485856", "MEAN_MOTION": 14.19397127, "ECCENTRICITY": 0.00829513, "INCLINATION": 99.057, "RA_OF_ASC_NODE": 88.6497, "ARG_OF_PERICENTER": 129.8844, "MEAN_ANOMALY": 260.3067, "EPHEMERIS_TYPE": 0, "CLASSIFICATION_TYPE": "U", "NORAD_CAT_ID": 33633, "ELEMENT_SET_NO": 999, "REV_AT_EPOCH": 90817, "BSTAR": 0.0014541583, "MEAN_MOTION_DOT": 3.12e-05, "MEAN_MOTION_DDOT": 0}, "tle": {"line1": "1 33633U 99025DDS 25354.21229729  .00003120  00000+0  14542-2 0  9999", "line2": "2 33633  99.0570  88.6497 0082951 129.8844 260.3067 14.19397127908176"}}, "geometry": {"type": "Point", "coordinates": [41.26299002187343, 79.02331249771788]}}, {"type": "Feature", "properties": {"norad_id": 33637, "name": "FENGYUN 1C DEB", "group": "fengyun-1c-debris", "lat": -18.627725821569403, "lon": -136.13406600055694, "alt_km": 775.860476798639, "timestamp": "2025-12-27T23:26:37.649415+00:00", "meta": {"OBJECT_NAME": "FENGYUN 1C DEB", "OBJECT_ID": "1999-025DDW", "EPOCH": "2025-12-22T20:31:28.911936", "MEAN_MOTION": 14.36813194, "ECCENTRICITY": 0.008304, "INCLINATION": 98.4926, "RA_OF_ASC_NODE": 41.7001, "ARG_OF_PERICENTER": 121.6537, "MEAN_ANOMALY": 239.2783, "EPHEMERIS_TYPE": 0, "CLASSIFICATION_TYPE": "U", "NORAD_CAT_ID": 33637, "ELEMENT_SET_NO": 999, "REV_AT_EPOCH": 64983, "BSTAR": 0.0011662, "MEAN_MOTION_DOT": 3.541e-05, "MEAN_MOTION_DDOT": 0}, "tle": {"line1": "1 33637U 99025DDW 25356.85519574  .00003541  00000+0  11662-2 0  9992", "line2": "2 33637  98.4926  41.7001 0083040 121.6537 239.2783 14.36813194649839"}}, "geometry": {"type": "Point", "coordinates": [-136.13406600055694, -18.627725821569403]}}, {"type": "Feature", "properties": {"norad_id": 33638, "name": "FENGYUN 1C DEB", "group": "fengyun-1c-debris", "lat": -52.550932921694155, "lon": 59.635954877854616, "alt_km": 814.1995758779285, "timestamp": "2025-12-27T23:26:37.649428+00:00", "meta": {"OBJECT_NAME": "FENGYUN 1C DEB", "OBJECT_ID": "1999-025DDX", "EPOCH": "2025-12-27T11:46:28.106976", "MEAN_MOTION": 13.69343265, "ECCENTRICITY": 0.026374, "INCLINATION": 98.4655, "RA_OF_ASC_NODE": 250.4201, "ARG_OF_PERICENTER": 233.5749, "MEAN_ANOMALY": 124.0821, "EPHEMERIS_TYPE": 0, "CLASSIFICATION_TYPE": "U", "NORAD_CAT_ID": 33638, "ELEMENT_SET_NO": 999, "REV_AT_EPOCH": 61117, "BSTAR": 0.00097564, "MEAN_MOTION_DOT": 1.044e-05, "MEAN_MOTION_DDOT": 0}, "tle": {"line1": "1 33638U 99025DDX 25361.49060309  .00001044  00000+0  97564-3 0  9998", "line2": "2 33638  98.4655 250.4201 0263740 233.5749 124.0821 13.69343265611177"}}, "geometry": {"type": "Point", "coordinates": [59.635954877854616, -52.550932921694155]}}, {"type": "Feature", "properties": {"norad_id": 33639, "name": "FENGYUN 1C DEB", "group": "fengyun-1c-debris", "lat": 61.866330347528574, "lon": -70.10580009853233, "alt_km": 771.202459449426, "timestamp": "2025-12-27T23:26:37.649438+00:00", "meta": {"OBJECT_NAME": "FENGYUN 1C DEB", "OBJECT_ID": "1999-025DDY", "EPOCH": "2025-12-14T11:30:34.684704", "MEAN_MOTION": 14.40475035, "ECCENTRICITY": 0.00499213, "INCLINATION": 98.7123, "RA_OF_ASC_NODE": 79.4896, "ARG_OF_PERICENTER": 283.4225, "MEAN_ANOMALY": 76.1402, "EPHEMERIS_TYPE": 0, "CLASSIFICATION_TYPE": "U", "NORAD_CAT_ID": 33639, "ELEMENT_SET_NO": 999, "REV_AT_EPOCH": 60607, "BSTAR": 0.0023798225, "MEAN_MOTION_DOT": 7.641e-05, "MEAN_MOTION_DDOT": 0}, "tle": {"line1": "1 33639U 99025DDY 25348.47956811  .00007641  00000+0  23798-2 0  9990", "line2": "2 33639  98.7123  79.4896 0049921 283.4225  76.1402 14.40475035606072"}}, "geometry": {"type": "Point", "coordinates": [-70.10580009853233, 61.866330347528574]}}, {"type": "Feature", "properties": {"norad_id": 33640, "name": "FENGYUN 1C DEB", "group": "fengyun-1c-debris", "lat": -58.26418550724411, "lon": 110.79449368122009, "alt_km": 783.110300748478, "timestamp": "2025-12-27T23:26:37.649449+00:00", "meta": {"OBJECT_NAME": "FENGYUN 1C DEB", "OBJECT_ID": "1999-025DDZ", "EPOCH": "2025-12-25T13:52:55.245216", "MEAN_MOTION": 14.4593595, "ECCENTRICITY": 0.0091461, "INCLINATION": 98.8425, "RA_OF_ASC_NODE": 302.873, "ARG_OF_PERICENTER": 121.3276, "MEAN_ANOMALY": 239.6907, "EPHEMERIS_TYPE": 0, "CLASSIFICATION_TYPE": "U", "NORAD_CAT_ID": 33640, "ELEMENT_SET_NO": 999, "REV_AT_EPOCH": 92528, "BSTAR": 0.00047063, "MEAN_MOTION_DOT": 1.713e-05, "MEAN_MOTION_DDOT": 0}, "tle": {"line1": "1 33640U 99025DDZ 25359.57841719  .00001713  00000+0  47063-3 0  9991", "line2": "2 33640  98.8425 302.8730 0091461 121.3276 239.6907 14.45935950925287"}}, "geometry": {"type": "Point", "coordinates": [110.79449368122009, -58.26418550724411]}}, {"type": "Feature", "properties": {"norad_id": 33648, "name": "FENGYUN 1C DEB", "group": "fengyun-1c-debris", "lat": 80.4544068251404, "lon": -113.88708826944331, "alt_km": 805.6969930920677, "timestamp": "2025-12-27T23:26:37.649459+00:00", "meta": {"OBJECT_NAME": "FENGYUN 1C DEB", "OBJECT_ID": "1999-025DEH", "EPOCH": "2025-12-26T18:05:07.417248", "MEAN_MOTION": 14.11781557, "ECCENTRICITY": 0.00695153, "INCLINATION": 98.7198, "RA_OF_ASC_NODE": 359.0495, "ARG_OF_PERICENTER": 134.5995, "MEAN_ANOMALY": 226.0878, "EPHEMERIS_TYPE": 0, "CLASSIFICATION_TYPE": "U", "NORAD_CAT_ID": 33648, "ELEMENT_SET_NO": 999, "REV_AT_EPOCH": 64574, "BSTAR": 9.9708443e-05, "MEAN_MOTION_DOT": 1.44e-06, "MEAN_MOTION_DDOT": 0}, "tle": {"line1": "1 33648U 99025DEH 25360.75355807  .00000144  00000+0  99708-4 0  9990", "line2": "2 33648  98.7198 359.0495 0069515 134.5995 226.0878 14.11781557645744"}}, "geometry": {"type": "Point", "coordinates": [-113.88708826944331, 80.4544068251404]}}, {"type": "Feature", "properties": {"norad_id": 33650, "name": "FENGYUN 1C DEB", "group": "fengyun-1c-debris", "lat": 76.2385714972357, "lon": 126.26891303322398, "alt_km": 842.1803969937437, "timestamp": "2025-12-27T23:26:37.649471+00:00", "meta": {"OBJECT_NAME": "FENGYUN 1C DEB", "OBJECT_ID": "1999-025DEK", "EPOCH": "2025-12-24T05:11:24.590112", "MEAN_MOTION": 13.89212225, "ECCENTRICITY": 0.01495912, "INCLINATION": 98.9861, "RA_OF_ASC_NODE": 162.8878, "ARG_OF_PERICENTER": 47.7284, "MEAN_ANOMALY": 313.6448, "EPHEMERIS_TYPE": 0, "CLASSIFICATION_TYPE": "U", "NORAD_CAT_ID": 33650, "ELEMENT_SET_NO": 999, "REV_AT_EPOCH": 68968, "BSTAR": 0.00062187935, "MEAN_MOTION_DOT": 7.85e-06, "MEAN_MOTION_DDOT": 0}, "tle": {"line1": "1 33650U 99025DEK 25358.21625683  .00000785  00000+0  62188-3 0  9995", "line2": "2 33650  98.9861 162.8878 0149591  47.7284 313.6448 13.89212225689682"}}, "geometry": {"type": "Point", "coordinates": [126.26891303322398, 76.2385714972357]}}, {"type": "Feature", "properties": {"norad_id": 33651, "name": "FENGYUN 1C DEB", "group": "fengyun-1c-debris", "lat": -70.8800697642804, "lon": -158.8242326577235, "alt_km": 869.3457281349274, "timestamp": "2025-12-27T23:26:37.649481+00:00", "meta": {"OBJECT_NAME": "FENGYUN 1C DEB", "OBJECT_ID": "1999-025DEL", "EPOCH": "2025-12-24T09:43:13.346976", "MEAN_MOTION": 14.20363757, "ECCENTRICITY": 0.01172412, "INCLINATION": 98.655, "RA_OF_ASC_NODE": 43.7432, "ARG_OF_PERICENTER": 20.4722, "MEAN_ANOMALY": 340.1097, "EPHEMERIS_TYPE": 0, "CLASSIFICATION_TYPE": "U", "NORAD_CAT_ID": 33651, "ELEMENT_SET_NO": 999, "REV_AT_EPOCH": 64437, "BSTAR": 0.00014773014, "MEAN_MOTION_DOT": 2.96e-06, "MEAN_MOTION_DDOT": 0}, "tle": {"line1": "1 33651U 99025DEL 25358.40501559  .00000296  00000+0  14773-3 0  9996", "line2": "2 33651  98.6550  43.7432 0117241  20.4722 340.1097 14.20363757644375"}}, "geometry": {"type": "Point", "coordinates": [-158.8242326577235, -70.8800697642804]}}, {"type": "Feature", "properties": {"norad_id": 33655, "name": "FENGYUN 1C DEB", "group": "fengyun-1c-debris", "lat": -61.85185909745492, "lon": -127.67242399753108, "alt_km": 565.9278104365267, "timestamp": "2025-12-27T23:26:37.649492+00:00", "meta": {"OBJECT_NAME": "FENGYUN 1C DEB", "OBJECT_ID": "1999-025DEQ", "EPOCH": "2025-12-27T11:08:19.906656", "MEAN_MOTION": 14.98316982, "ECCENTRICITY": 0.0045983, "INCLINATION": 98.7992, "RA_OF_ASC_NODE": 68.5789, "ARG_OF_PERICENTER": 310.5084, "MEAN_ANOMALY": 49.2132, "EPHEMERIS_TYPE": 0, "CLASSIFICATION_TYPE": "U", "NORAD_CAT_ID": 33655, "ELEMENT_SET_NO": 999, "REV_AT_EPOCH": 96778, "BSTAR": 0.0018823, "MEAN_MOTION_DOT": 0.00022889, "MEAN_MOTION_DDOT": 0}, "tle": {"line1": "1 33655U 99025DEQ 25361.46411929  .00022889  00000+0  18823-2 0  9992", "line2": "2 33655  98.7992  68.5789 0045983 310.5084  49.2132 14.98316982967780"}}, "geometry": {"type": "Point", "coordinates": [-127.67242399753108, -61.85185909745492]}}]}